$$SOE
2460154.500000000, A.D. 2023-Jul-29 00:00:00.0000, 2.410793276171062E+08, 4.105051463064319E+08, -2.501317237076193E+06,
2460161.500000000, A.D. 2023-Aug-05 00:00:00.0000, 2.320396151407810E+08, 4.166821909509626E+08, -1.083745861895114E+06,
2460168.500000000, A.D. 2023-Aug-12 00:00:00.0000, 2.228962844693281E+08, 4.226727491783705E+08, 3.343026012570560E+05,
2460175.500000000, A.D. 2023-Aug-19 00:00:00.0000, 2.136539853603007E+08, 4.284752161192684E+08, 1.752194074257255E+06,
2460182.500000000, A.D. 2023-Aug-26 00:00:00.0000, 2.043173845535037E+08, 4.340881388586765E+08, 3.169301957112104E+06,
2460189.500000000, A.D. 2023-Sep-02 00:00:00.0000, 1.948911595413699E+08, 4.395102153238875E+08, 4.585007770111144E+06,
2460196.500000000, A.D. 2023-Sep-09 00:00:00.0000, 1.853799924978907E+08, 4.447402927640266E+08, 5.998701749832451E+06,
2460203.500000000, A.D. 2023-Sep-16 00:00:00.0000, 1.757885645498849E+08, 4.497773657783732E+08, 7.409783378031164E+06,
2460210.500000000, A.D. 2023-Sep-23 00:00:00.0000, 1.661215508212091E+08, 4.546205741965340E+08, 8.817661828097343E+06,
2460217.500000000, A.D. 2023-Sep-30 00:00:00.0000, 1.563836159239300E+08, 4.592692020180331E+08, 1.022175645713159E+07,
2460224.500000000, A.D. 2023-Oct-07 00:00:00.0000, 1.465794075546004E+08, 4.637226768836550E+08, 1.162149751495588E+07,
2460231.500000000, A.D. 2023-Oct-14 00:00:00.0000, 1.367135492439648E+08, 4.679805667811559E+08, 1.301632670415631E+07,
2460238.500000000, A.D. 2023-Oct-21 00:00:00.0000, 1.267906354973634E+08, 4.720425756070081E+08, 1.440569742634785E+07,
2460245.500000000, A.D. 2023-Oct-28 00:00:00.0000, 1.168152279099470E+08, 4.759085398609838E+08, 1.578907503030062E+07,
2460252.500000000, A.D. 2023-Nov-04 00:00:00.0000, 1.067918510118144E+08, 4.795784257182232E+08, 1.716593711418298E+07,
2460259.500000000, A.D. 2023-Nov-11 00:00:00.0000, 9.672498802353323E+07, 4.830523258951067E+08, 1.853577381743744E+07,
2460266.500000000, A.D. 2023-Nov-18 00:00:00.0000, 8.661907674343990E+07, 4.863304562620580E+08, 1.989808807792327E+07,
2460273.500000000, A.D. 2023-Nov-25 00:00:00.0000, 7.647850564099638E+07, 4.894131522437708E+08, 2.125239585064560E+07,
2460280.500000000, A.D. 2023-Dec-02 00:00:00.0000, 6.630761018548861E+07, 4.923008650131758E+08, 2.259822628577626E+07,
2460287.500000000, A.D. 2023-Dec-09 00:00:00.0000, 5.611066948826822E+07, 4.949941574366084E+08, 2.393512185518426E+07,
2460294.500000000, A.D. 2023-Dec-16 00:00:00.0000, 4.589190354521877E+07, 4.974936997979239E+08, 2.526263840324897E+07,
2460301.500000000, A.D. 2023-Dec-23 00:00:00.0000, 3.565547142570328E+07, 4.998002660036200E+08, 2.658034514724907E+07,
2460308.500000000, A.D. 2023-Dec-30 00:00:00.0000, 2.540546906500687E+07, 5.019147313322435E+08, 2.788782483699235E+07,
2460315.500000000, A.D. 2024-Jan-06 00:00:00.0000, 1.514592488402601E+07, 5.038380693788690E+08, 2.918467404424760E+07,
2460322.500000000, A.D. 2024-Jan-13 00:00:00.0000, 4.880796402358199E+06, 5.055713463992164E+08, 3.047050314444825E+07,
2460329.500000000, A.D. 2024-Jan-20 00:00:00.0000, -5.386030937927746E+06, 5.071157161521851E+08, 3.174493613177189E+07,
2460336.500000000, A.D. 2024-Jan-27 00:00:00.0000, -1.565074477169106E+07, 5.084724159053148E+08, 3.300761050809234E+07,
2460343.500000000, A.D. 2024-Feb-03 00:00:00.0000, -2.590960706777506E+07, 5.096427626647614E+08, 3.425817720872545E+07,
2460350.500000000, A.D. 2024-Feb-10 00:00:00.0000, -3.615895537320586E+07, 5.106281493483628E+08, 3.549630051695821E+07,
2460357.500000000, A.D. 2024-Feb-17 00:00:00.0000, -4.639520391295880E+07, 5.114300409188154E+08, 3.672165795652872E+07,
2460364.500000000, A.D. 2024-Feb-24 00:00:00.0000, -5.661484451672620E+07, 5.120499705000471E+08, 3.793394016120505E+07,
2460371.500000000, A.D. 2024-Mar-02 00:00:00.0000, -6.681444735096562E+07, 5.124895354517225E+08, 3.913285071735299E+07,
2460378.500000000, A.D. 2024-Mar-09 00:00:00.0000, -7.699066132530750E+07, 5.127503933457064E+08, 4.031810596285582E+07,
2460385.500000000, A.D. 2024-Mar-16 00:00:00.0000, -8.714021378619143E+07, 5.128342580478172E+08, 4.148943472349462E+07,
2460392.500000000, A.D. 2024-Mar-23 00:00:00.0000, -9.725990960963333E+07, 5.127428970198622E+08, 4.264657808818030E+07,
2460399.500000000, A.D. 2024-Mar-30 00:00:00.0000, -1.073466319418767E+08, 5.124781298206105E+08, 4.378928942760351E+07,
2460406.500000000, A.D. 2024-Apr-06 00:00:00.0000, -1.173973443391456E+08, 5.120418244409440E+08, 4.491733435863182E+07,
2460413.500000000, A.D. 2024-Apr-13 00:00:00.0000, -1.274090907643938E+08, 5.114358923121247E+08, 4.603049039825112E+07,
2460420.500000000, A.D. 2024-Apr-20 00:00:00.0000, -1.373789944018550E+08, 5.106622846682919E+08, 4.712854661436865E+07,
2460427.500000000, A.D. 2024-Apr-27 00:00:00.0000, -1.473042568136661E+08, 5.097229897049115E+08, 4.821130336781490E+07,
2460434.500000000, A.D. 2024-May-04 00:00:00.0000, -1.571821573580377E+08, 5.086200298314917E+08, 4.927857208102068E+07,
2460441.500000000, A.D. 2024-May-11 00:00:00.0000, -1.670100526381957E+08, 5.073554589182644E+08, 5.033017500423604E+07,
2460448.500000000, A.D. 2024-May-18 00:00:00.0000, -1.767853759075148E+08, 5.059313595598344E+08, 5.136594497460121E+07,
2460455.500000000, A.D. 2024-May-25 00:00:00.0000, -1.865056364132819E+08, 5.043498403497971E+08, 5.238572516627726E+07,
2460462.500000000, A.D. 2024-Jun-01 00:00:00.0000, -1.961684186261015E+08, 5.026130331096718E+08, 5.338936882250240E+07,
2460469.500000000, A.D. 2024-Jun-08 00:00:00.0000, -2.057713811151412E+08, 5.007230900495856E+08, 5.437673894612470E+07,
2460476.500000000, A.D. 2024-Jun-15 00:00:00.0000, -2.153122546760168E+08, 4.986821814058514E+08, 5.534770795750207E+07,
2460483.500000000, A.D. 2024-Jun-22 00:00:00.0000, -2.247888407225446E+08, 4.964924947306607E+08, 5.630215750895569E+07,
2460490.500000000, A.D. 2024-Jun-29 00:00:00.0000, -2.341990120688383E+08, 4.941562340126327E+08, 5.723997850234875E+07,
2460497.500000000, A.D. 2024-Jul-06 00:00:00.0000, -2.435407134610149E+08, 4.916756161542808E+08, 5.816107086573604E+07,
2460504.500000000, A.D. 2024-Jul-13 00:00:00.0000, -2.528119599152050E+08, 4.890528676275615E+08, 5.906534314164242E+07,
2460511.500000000, A.D. 2024-Jul-20 00:00:00.0000, -2.620108348536564E+08, 4.862902224551089E+08, 5.995271216363341E+07,
2460518.500000000, A.D. 2024-Jul-27 00:00:00.0000, -2.711354887000425E+08, 4.833899205564626E+08, 6.082310280346736E+07,
2460525.500000000, A.D. 2024-Aug-03 00:00:00.0000, -2.801841376658530E+08, 4.803542060828692E+08, 6.167644773359162E+07,
2460532.500000000, A.D. 2024-Aug-10 00:00:00.0000, -2.891550625665471E+08, 4.771853257349184E+08, 6.251268718975195E+07,
2460539.500000000, A.D. 2024-Aug-17 00:00:00.0000, -2.980466076240503E+08, 4.738855270834293E+08, 6.333176873135167E+07,
2460546.500000000, A.D. 2024-Aug-24 00:00:00.0000, -3.068571792312269E+08, 4.704570568697300E+08, 6.413364699524888E+07,
2460553.500000000, A.D. 2024-Aug-31 00:00:00.0000, -3.155852445658914E+08, 4.669021592218984E+08, 6.491828342732939E+07,
2460560.500000000, A.D. 2024-Sep-07 00:00:00.0000, -3.242293296919073E+08, 4.632230739110983E+08, 6.568564596857098E+07,
2460567.500000000, A.D. 2024-Sep-14 00:00:00.0000, -3.327880170652531E+08, 4.594220356415690E+08, 6.643570876909700E+07,
2460574.500000000, A.D. 2024-Sep-21 00:00:00.0000, -3.412599444770282E+08, 4.555012747849944E+08, 6.716845215001956E+07,
2460581.500000000, A.D. 2024-Sep-28 00:00:00.0000, -3.496438059230372E+08, 4.514630163296959E+08, 6.788386259396914E+07,
2460588.500000000, A.D. 2024-Oct-05 00:00:00.0000, -3.579383507318340E+08, 4.473094770429892E+08, 6.858193242768165E+07,
2460595.500000000, A.D. 2024-Oct-12 00:00:00.0000, -3.661423813146465E+08, 4.430428638238500E+08, 6.926265947326380E+07,
2460602.500000000, A.D. 2024-Oct-19 00:00:00.0000, -3.742547512907193E+08, 4.386653729733997E+08, 6.992604680673143E+07,
2460609.500000000, A.D. 2024-Oct-26 00:00:00.0000, -3.822743640221070E+08, 4.341791895798943E+08, 7.057210256135556E+07,
2460616.500000000, A.D. 2024-Nov-02 00:00:00.0000, -3.902001713019697E+08, 4.295864868675690E+08, 7.120083974011406E+07,
2460623.500000000, A.D. 2024-Nov-09 00:00:00.0000, -3.980311721011218E+08, 4.248894255278189E+08, 7.181227603012717E+07,
2460630.500000000, A.D. 2024-Nov-16 00:00:00.0000, -4.057664113481736E+08, 4.200901530308822E+08, 7.240643361678427E+07,
2460637.500000000, A.D. 2024-Nov-23 00:00:00.0000, -4.134049786974399E+08, 4.151908028660899E+08, 7.298333898924723E+07,
2460644.500000000, A.D. 2024-Nov-30 00:00:00.0000, -4.209460070772890E+08, 4.101934936659981E+08, 7.354302271480903E+07,
2460651.500000000, A.D. 2024-Dec-07 00:00:00.0000, -4.283886706003976E+08, 4.051003286329365E+08, 7.408551917808881E+07,
2460658.500000000, A.D. 2024-Dec-14 00:00:00.0000, -4.357321825256161E+08, 3.999133964899569E+08, 7.461086644837071E+07,
2460665.500000000, A.D. 2024-Dec-21 00:00:00.0000, -4.429757955911591E+08, 3.946347727139537E+08, 7.511910638655420E+07,
2460672.500000000, A.D. 2024-Dec-28 00:00:00.0000, -4.501188027468227E+08, 3.892665180820777E+08, 7.561028456843294E+07,
2460679.500000000, A.D. 2025-Jan-04 00:00:00.0000, -4.571605356878729E+08, 3.838106769050211E+08, 7.608444998030466E+07,
2460686.500000000, A.D. 2025-Jan-11 00:00:00.0000, -4.641003630127909E+08, 3.782692766048321E+08, 7.654165478980507E+07,
2460693.500000000, A.D. 2025-Jan-18 00:00:00.0000, -4.709376889225695E+08, 3.726443277171414E+08, 7.698195420126666E+07,
2460700.500000000, A.D. 2025-Jan-25 00:00:00.0000, -4.776719522181700E+08, 3.669378238418115E+08, 7.740540633469737E+07,
2460707.500000000, A.D. 2025-Feb-01 00:00:00.0000, -4.843026254065437E+08, 3.611517415102226E+08, 7.781207210870232E+07,
2460714.500000000, A.D. 2025-Feb-08 00:00:00.0000, -4.908292138566835E+08, 3.552880399871975E+08, 7.820201512372285E+07,
2460721.500000000, A.D. 2025-Feb-15 00:00:00.0000, -4.972512549766744E+08, 3.493486609859287E+08, 7.857530154138273E+07,
$$EOE